{
  "type": "FeatureCollection",
  "features": [
    {
      "type": "Feature",
      "properties": {
        "norad_id": 34570,
        "name": "COSMOS 2251 DEB",
        "group": "cosmos-2251-debris",
        "lat": 51.9119448916625,
        "lon": 34.953882879292536,
        "alt_km": 751.120959650535,
        "timestamp": "2025-12-02T06:27:53.406024+00:00",
        "meta_object_name": "COSMOS 2251 DEB",
        "meta_object_id": "1993-036VG",
        "meta_epoch": "2025-12-01T04:52:12.097056",
        "meta_mean_motion": 13.99791144,
        "meta_eccentricity": 0.0190354,
        "meta_inclination": 73.9581,
        "meta_ra_of_asc_node": 238.3445,
        "meta_arg_of_pericenter": 123.4106,
        "meta_mean_anomaly": 29.376,
        "meta_ephemeris_type": 0,
        "meta_classification_type": "U",
        "meta_norad_cat_id": 34570,
        "meta_element_set_no": 999,
        "meta_rev_at_epoch": 85439,
        "meta_bstar": 0.00050145,
        "meta_mean_motion_dot": 8.36e-06,
        "meta_mean_motion_ddot": 0,
        "tle_line1": "1 34570U 93036VG  25335.20291779  .00000836  00000+0  50145-3 0  9999",
        "tle_line2": "2 34570  73.9581 238.3445 0190354 123.4106  29.3760 13.99791144854396"
      },
      "geometry": {
        "type": "Point",
        "coordinates": [
          34.953882879292536,
          51.9119448916625
        ]
      }
    },
    {
      "type": "Feature",
      "properties": {
        "norad_id": 34571,
        "name": "COSMOS 2251 DEB",
        "group": "cosmos-2251-debris",
        "lat": -60.36911782779218,
        "lon": 171.84212974371,
        "alt_km": 709.8887961973805,
        "timestamp": "2025-12-02T06:27:53.406034+00:00",
        "meta_object_name": "COSMOS 2251 DEB",
        "meta_object_id": "1993-036VH",
        "meta_epoch": "2025-11-30T01:43:20.045856",
        "meta_mean_motion": 14.48520633,
        "meta_eccentricity": 0.00677166,
        "meta_inclination": 74.0399,
        "meta_ra_of_asc_node": 206.1644,
        "meta_arg_of_pericenter": 244.2036,
        "meta_mean_anomaly": 115.2128,
        "meta_ephemeris_type": 0,
        "meta_classification_type": "U",
        "meta_norad_cat_id": 34571,
        "meta_element_set_no": 999,
        "meta_rev_at_epoch": 87110,
        "meta_bstar": 0.0021566279,
        "meta_mean_motion_dot": 8.316e-05,
        "meta_mean_motion_ddot": 0,
        "tle_line1": "1 34571U 93036VH  25334.07175979  .00008316  00000+0  21566-2 0  9992",
        "tle_line2": "2 34571  74.0399 206.1644 0067716 244.2036 115.2128 14.48520633871108"
      },
      "geometry": {
        "type": "Point",
        "coordinates": [
          171.84212974371,
          -60.36911782779218
        ]
      }
    },
    {
      "type": "Feature",
      "properties": {
        "norad_id": 34572,
        "name": "COSMOS 2251 DEB",
        "group": "cosmos-2251-debris",
        "lat": 62.054541773778304,
        "lon": -77.52622166752734,
        "alt_km": 726.0402691057652,
        "timestamp": "2025-12-02T06:27:53.406043+00:00",
        "meta_object_name": "COSMOS 2251 DEB",
        "meta_object_id": "1993-036VJ",
        "meta_epoch": "2025-12-01T11:59:02.664096",
        "meta_mean_motion": 14.49619405,
        "meta_eccentricity": 0.00641877,
        "meta_inclination": 74.0092,
        "meta_ra_of_asc_node": 136.6423,
        "meta_arg_of_pericenter": 212.2456,
        "meta_mean_anomaly": 204.7562,
        "meta_ephemeris_type": 0,
        "meta_classification_type": "U",
        "meta_norad_cat_id": 34572,
        "meta_element_set_no": 999,
        "meta_rev_at_epoch": 87215,
        "meta_bstar": 0.003471836,
        "meta_mean_motion_dot": 0.00013693,
        "meta_mean_motion_ddot": 0,
        "tle_line1": "1 34572U 93036VJ  25335.49933639  .00013693  00000+0  34718-2 0  9992",
        "tle_line2": "2 34572  74.0092 136.6423 0064187 212.2456 204.7562 14.49619405872150"
      },
      "geometry": {
        "type": "Point",
        "coordinates": [
          -77.52622166752734,
          62.054541773778304
        ]
      }
    },
    {
      "type": "Feature",
      "properties": {
        "norad_id": 34574,
        "name": "COSMOS 2251 DEB",
        "group": "cosmos-2251-debris",
        "lat": -54.61284552753024,
        "lon": 39.7008859377369,
        "alt_km": 705.4663864682543,
        "timestamp": "2025-12-02T06:27:53.406053+00:00",
        "meta_object_name": "COSMOS 2251 DEB",
        "meta_object_id": "1993-036VL",
        "meta_epoch": "2025-12-01T14:41:46.154400",
        "meta_mean_motion": 14.70392839,
        "meta_eccentricity": 0.00670629,
        "meta_inclination": 74.0693,
        "meta_ra_of_asc_node": 64.6825,
        "meta_arg_of_pericenter": 89.4651,
        "meta_mean_anomaly": 336.5681,
        "meta_ephemeris_type": 0,
        "meta_classification_type": "U",
        "meta_norad_cat_id": 34574,
        "meta_element_set_no": 999,
        "meta_rev_at_epoch": 88615,
        "meta_bstar": 0.0010690889,
        "meta_mean_motion_dot": 6.672e-05,
        "meta_mean_motion_ddot": 0,
        "tle_line1": "1 34574U 93036VL  25335.61233975  .00006672  00000+0  10691-2 0  9997",
        "tle_line2": "2 34574  74.0693  64.6825 0067062  89.4651 336.5681 14.70392839886155"
      },
      "geometry": {
        "type": "Point",
        "coordinates": [
          39.7008859377369,
          -54.61284552753024
        ]
      }
    },
    {
      "type": "Feature",
      "properties": {
        "norad_id": 34576,
        "name": "COSMOS 2251 DEB",
        "group": "cosmos-2251-debris",
        "lat": 54.106941616433225,
        "lon": -45.2744469036466,
        "alt_km": 708.3581543435857,
        "timestamp": "2025-12-02T06:27:53.406063+00:00",
        "meta_object_name": "COSMOS 2251 DEB",
        "meta_object_id": "1993-036VN",
        "meta_epoch": "2025-12-01T11:53:14.026272",
        "meta_mean_motion": 14.55294721,
        "meta_eccentricity": 0.00078235,
        "meta_inclination": 74.0329,
        "meta_ra_of_asc_node": 159.4962,
        "meta_arg_of_pericenter": 292.5887,
        "meta_mean_anomaly": 96.2174,
        "meta_ephemeris_type": 0,
        "meta_classification_type": "U",
        "meta_norad_cat_id": 34576,
        "meta_element_set_no": 999,
        "meta_rev_at_epoch": 88303,
        "meta_bstar": 0.00089232373,
        "meta_mean_motion_dot": 3.842e-05,
        "meta_mean_motion_ddot": 0,
        "tle_line1": "1 34576U 93036VN  25335.49530123  .00003842  00000+0  89232-3 0  9994",
        "tle_line2": "2 34576  74.0329 159.4962 0007823 292.5887  96.2174 14.55294721883030"
      },
      "geometry": {
        "type": "Point",
        "coordinates": [
          -45.2744469036466,
          54.106941616433225
        ]
      }
    },
    {
      "type": "Feature",
      "properties": {
        "norad_id": 34577,
        "name": "COSMOS 2251 DEB",
        "group": "cosmos-2251-debris",
        "lat": -72.80518265575263,
        "lon": 118.17037513906256,
        "alt_km": 314.9869746829263,
        "timestamp": "2025-12-02T06:27:53.406073+00:00",
        "meta_object_name": "COSMOS 2251 DEB",
        "meta_object_id": "1993-036VP",
        "meta_epoch": "2025-12-01T15:41:53.517696",
        "meta_mean_motion": 15.86969457,
        "meta_eccentricity": 0.00093146,
        "meta_inclination": 73.9865,
        "meta_ra_of_asc_node": 187.7479,
        "meta_arg_of_pericenter": 146.1216,
        "meta_mean_anomaly": 214.0613,
        "meta_ephemeris_type": 0,
        "meta_classification_type": "U",
        "meta_norad_cat_id": 34577,
        "meta_element_set_no": 999,
        "meta_rev_at_epoch": 89352,
        "meta_bstar": 0.0069592254,
        "meta_mean_motion_dot": 0.02068,
        "meta_mean_motion_ddot": 0,
        "tle_line1": "1 34577U 93036VP  25335.65409164  .02068000  00000+0  69592-2 0  9998",
        "tle_line2": "2 34577  73.9865 187.7479 0009314 146.1216 214.0613 15.86969457893521"
      },
      "geometry": {
        "type": "Point",
        "coordinates": [
          118.17037513906256,
          -72.80518265575263
        ]
      }
    },
    {
      "type": "Feature",
      "properties": {
        "norad_id": 34579,
        "name": "COSMOS 2251 DEB",
        "group": "cosmos-2251-debris",
        "lat": 0.3597284051546931,
        "lon": -116.51275965732688,
        "alt_km": 730.3757645694168,
        "timestamp": "2025-12-02T06:27:53.406083+00:00",
        "meta_object_name": "COSMOS 2251 DEB",
        "meta_object_id": "1993-036VR",
        "meta_epoch": "2025-12-01T19:05:29.768352",
        "meta_mean_motion": 14.45251072,
        "meta_eccentricity": 0.0027495,
        "meta_inclination": 74.0529,
        "meta_ra_of_asc_node": 244.2662,
        "meta_arg_of_pericenter": 314.5542,
        "meta_mean_anomaly": 101.1293,
        "meta_ephemeris_type": 0,
        "meta_classification_type": "U",
        "meta_norad_cat_id": 34579,
        "meta_element_set_no": 999,
        "meta_rev_at_epoch": 88016,
        "meta_bstar": 0.00049009,
        "meta_mean_motion_dot": 1.7e-05,
        "meta_mean_motion_ddot": 0,
        "tle_line1": "1 34579U 93036VR  25335.79548343  .00001700  00000+0  49009-3 0  9992",
        "tle_line2": "2 34579  74.0529 244.2662 0027495 314.5542 101.1293 14.45251072880165"
      },
      "geometry": {
        "type": "Point",
        "coordinates": [
          -116.51275965732688,
          0.3597284051546931
        ]
      }
    }
  ]
}